STARLINK-32172          
1 61518U 24183K   26068.49396085  .00000877  00000+0  41759-4 0  9996
2 61518  53.1601 143.2666 0001125  87.2122 272.9008 15.30188090 79625
COSMOS 2588             
1 64095U 25109A   26068.81179522  .00009169  00000+0  32611-3 0  9998
2 64095  72.9704  73.5401 0005019 308.6780  51.3966 15.29122656 44425
